#aV2024  4 19  0  0  0.00000000     288 DD+AD WGS84 FIT  NGA
## 2310 432000.00000000   300.00000000 60419 0.0000000000000
+   31     2  3  4  5  6  7  8  9 10 11 12 13 14 15 16 17 18
+         19 20 21 22 23 24 25 26 27 28 29 30 31 32  0  0  0
+          0  0  0  0  0  0  0  0  0  0  0  0  0  0  0  0  0
+          0  0  0  0  0  0  0  0  0  0  0  0  0  0  0  0  0
+          0  0  0  0  0  0  0  0  0  0  0  0  0  0  0  0  0
++         2  2  2  2  2  2  2  2  2  2  2  2  2  2  2  2  2
++         2  2  2  2  2  2  2  2  2  2  2  2  2  2  0  0  0
++         0  0  0  0  0  0  0  0  0  0  0  0  0  0  0  0  0
++         0  0  0  0  0  0  0  0  0  0  0  0  0  0  0  0  0
++         0  0  0  0  0  0  0  0  0  0  0  0  0  0  0  0  0
%c cc cc ccc ccc cccc cccc cccc cccc ccccc ccccc ccccc ccccc
%c cc cc ccc ccc cccc cccc cccc cccc ccccc ccccc ccccc ccccc
%f  0.0000000  0.000000000  0.00000000000  0.000000000000000
%f  0.0000000  0.000000000  0.00000000000  0.000000000000000
%i    0    0    0    0      0      0      0      0         0
%i    0    0    0    0      0      0      0      0         0
/*      NGA, ST. LOUIS,MO.                                  
/*   EPHEMERIS COMPUTED FROM 2 DAYS OF DATA                 
/*   EPOCHA v9 SMOOTHER                                     
/*   G2296 IERS2010 SATIGS SATAPC                           
*  2024  4 19  3 40  0.00000000
P  2 -13995.087446  12735.858686  19006.035526   -450.921401                    
V  2    231.475396 -23252.421343  16439.320809      0.065326                    
P  3 -22638.474031  12679.614590  -5506.384298    318.479000                    
V  3  -7105.693308    497.387085  31322.369583      0.207832                    
P  4 -14903.099288   6427.092383 -21032.208904    342.064109                    
V  4 -19817.313440 -17916.597620   8430.064014      0.087217                    
P  5  24716.046751  -4242.801370  -9062.259491   -169.653690                    
V  5  -9362.975614   6554.494324 -29079.768665     -0.013699                    
P  6   6325.890635  21028.336346 -14794.721552    315.049900                    
V  6  -4596.116057  18381.922209  24166.952077     -0.182264                    
P  7  -5221.294272  25677.294806  -1759.498241   -110.458727                    
V  7  -3097.203209  -3386.157994 -31733.696355     -0.083859                    
P  8 -21273.157770  -1763.961964  15960.555426    130.480683                    
V  8 -15171.776957 -13635.405516 -21161.527347      0.227115                    
P  9  -2347.865404  16532.248527 -20721.985472    165.549475                    
V  9 -21355.600600 -15129.127121  -9739.210645      0.137057                    
P 10  -5807.161413 -13632.508315  22252.518799    -10.629920                    
V 10  25833.323481  -9948.206916    343.099097     -0.047494                    
P 11  12969.641957   9484.715140 -21134.622680   -640.307023                    
V 11  -5965.726608  26198.596497   8039.769285     -0.103322                    
P 12  23929.145377 -10689.760185  -4400.401526   -497.858114                    
V 12   5813.364318   1029.213828  31184.896865     -0.034141                    
P 13  21235.863296  11575.496324  11034.104982    643.884397                    
V 13   8253.499586  11763.034949 -27488.029180      0.030876                    
P 14   1394.778984  15819.170364  21296.762278    379.875828                    
V 14 -25645.628188   8635.647444  -4942.367730      0.095066                    
P 15  21372.739418   -768.005801  15379.486476    149.959154                    
V 15  16415.826135  12401.402204 -21310.406136      0.040776                    
P 16 -23864.606304  -1938.081777 -12306.052025   -313.181395                    
V 16  13800.365086  -6003.401737 -26103.162030      0.094949                    
P 17   9123.763429  21003.122242  13739.312772    710.915584                    
V 17 -13778.425468  -9809.768076  25062.169841     -0.008865                    
P 18   5398.227769 -25861.277499  -1375.433635   -596.918063                    
V 18   2199.459734   2173.175144 -32125.616634     -0.065112                    
P 19  16409.791155  20618.205043   4500.798222    470.214668                    
V 19  -5748.616554  -2553.635814  30998.425634      0.053480                    
P 20  19247.202425   3143.889320 -17901.796754    379.661437                    
V 20 -18631.836569  13493.259650 -17748.809388     -0.013815                    
P 21 -15144.185786   6346.134156  21118.387076    126.517726                    
V 21    413.975869 -26038.437041   9299.476455     -0.020752                    
P 22   9397.092727  12951.961756  21579.568021     -1.560944                    
V 22 -25236.046050   7986.767961   6607.112871     -0.055569                    
P 23   7659.967359 -17009.733131  18852.628654    204.465940                    
V 23  22512.183153  -8156.470704 -16712.262565      0.093096                    
P 24  14555.191705 -10856.105647  18832.463484   -460.960490                    
V 24    547.304967  25089.581391  14149.867835     -0.042741                    
P 25  16797.059107 -16465.048267 -12413.278588    494.067712                    
V 25  15219.287385  -3350.768023  26006.153028      0.008247                    
P 26 -15411.909788  -8990.321124 -19924.719101    164.754341                    
V 26  21978.466611 -11937.004572 -11335.577312     -0.051452                    
P 27 -22837.130163 -12189.948911   6586.264674    -19.473700                    
V 27  -5329.548026  -7194.087241 -30040.973792     -0.022252                    
P 28  -6017.814577 -22696.129639 -12431.492258   -209.053341                    
V 28   4145.120343 -15377.660624  26093.401675     -0.152736                    
P 29   5879.960308 -14561.282257 -21457.692952   -601.410842                    
V 29  20196.529445  18086.228764  -6862.345861      0.012205                    
P 30   2285.467330  25037.095371   8270.773487   -403.129476                    
V 30  -5076.421406   9765.848239 -28918.108100      0.056279                    
P 31 -11549.153099 -13984.234737 -19480.515293   -227.996985                    
V 31   5707.805753 -23803.032716  14246.334808      0.000753                    
P 32 -13032.444639 -20369.141591  11424.824006   -618.240829                    
V 32  12455.615136   6992.732483  26981.744410     -0.003234                    
EOF
